{
  "type": "FeatureCollection",
  "features": [
    {
      "type": "Feature",
      "properties": {
        "norad_id": 30760,
        "name": "FENGYUN 1C DEB",
        "group": "fengyun-1c-debris",
        "lat": 23.89362060025767,
        "lon": 177.29472779860168,
        "alt_km": 910.7137920328578,
        "timestamp": "2025-12-22T22:44:21.254145+00:00",
        "meta_object_name": "FENGYUN 1C DEB",
        "meta_object_id": "1999-025ATW",
        "meta_epoch": "2025-12-22T06:37:03.333792",
        "meta_mean_motion": 14.05188687,
        "meta_eccentricity": 0.00524138,
        "meta_inclination": 98.8228,
        "meta_ra_of_asc_node": 352.696,
        "meta_arg_of_pericenter": 316.5557,
        "meta_mean_anomaly": 43.1486,
        "meta_ephemeris_type": 0,
        "meta_classification_type": "U",
        "meta_norad_cat_id": 30760,
        "meta_element_set_no": 999,
        "meta_rev_at_epoch": 96356,
        "meta_bstar": 0.00033966561,
        "meta_mean_motion_dot": 5.12e-06,
        "meta_mean_motion_ddot": 0,
        "tle_line1": "1 30760U 99025ATW 25356.27573303  .00000512  00000+0  33967-3 0  9990",
        "tle_line2": "2 30760  98.8228 352.6960 0052413 316.5557  43.1486 14.05188687963566"
      },
      "geometry": {
        "type": "Point",
        "coordinates": [
          177.29472779860168,
          23.89362060025767
        ]
      }
    },
    {
      "type": "Feature",
      "properties": {
        "norad_id": 30761,
        "name": "FENGYUN 1C DEB",
        "group": "fengyun-1c-debris",
        "lat": -49.67219491797476,
        "lon": -65.84008818927225,
        "alt_km": 724.9890056163968,
        "timestamp": "2025-12-22T22:44:21.254155+00:00",
        "meta_object_name": "FENGYUN 1C DEB",
        "meta_object_id": "1999-025ATX",
        "meta_epoch": "2025-12-20T17:27:10.446336",
        "meta_mean_motion": 14.3581681,
        "meta_eccentricity": 0.00839529,
        "meta_inclination": 98.9667,
        "meta_ra_of_asc_node": 281.1328,
        "meta_arg_of_pericenter": 290.3548,
        "meta_mean_anomaly": 68.8632,
        "meta_ephemeris_type": 0,
        "meta_classification_type": "U",
        "meta_norad_cat_id": 30761,
        "meta_element_set_no": 999,
        "meta_rev_at_epoch": 97856,
        "meta_bstar": 0.00063139698,
        "meta_mean_motion_dot": 1.854e-05,
        "meta_mean_motion_ddot": 0,
        "tle_line1": "1 30761U 99025ATX 25354.72720424  .00001854  00000+0  63140-3 0  9993",
        "tle_line2": "2 30761  98.9667 281.1328 0083952 290.3548  68.8632 14.35816810978562"
      },
      "geometry": {
        "type": "Point",
        "coordinates": [
          -65.84008818927225,
          -49.67219491797476
        ]
      }
    },
    {
      "type": "Feature",
      "properties": {
        "norad_id": 30762,
        "name": "FENGYUN 1C DEB",
        "group": "fengyun-1c-debris",
        "lat": 3.401473084268612,
        "lon": 167.9387908960648,
        "alt_km": 900.8345384514387,
        "timestamp": "2025-12-22T22:44:21.254166+00:00",
        "meta_object_name": "FENGYUN 1C DEB",
        "meta_object_id": "1999-025ATY",
        "meta_epoch": "2025-12-21T22:09:14.270112",
        "meta_mean_motion": 13.98109467,
        "meta_eccentricity": 0.01972971,
        "meta_inclination": 98.8758,
        "meta_ra_of_asc_node": 346.4153,
        "meta_arg_of_pericenter": 269.6331,
        "meta_mean_anomaly": 155.9641,
        "meta_ephemeris_type": 0,
        "meta_classification_type": "U",
        "meta_norad_cat_id": 30762,
        "meta_element_set_no": 999,
        "meta_rev_at_epoch": 95766,
        "meta_bstar": 0.00056687687,
        "meta_mean_motion_dot": 9.07e-06,
        "meta_mean_motion_ddot": 0,
        "tle_line1": "1 30762U 99025ATY 25355.92308183  .00000907  00000+0  56688-3 0  9998",
        "tle_line2": "2 30762  98.8758 346.4153 0197297 269.6331 155.9641 13.98109467957668"
      },
      "geometry": {
        "type": "Point",
        "coordinates": [
          167.9387908960648,
          3.401473084268612
        ]
      }
    },
    {
      "type": "Feature",
      "properties": {
        "norad_id": 30763,
        "name": "FENGYUN 1C DEB",
        "group": "fengyun-1c-debris",
        "lat": -34.14559903927445,
        "lon": -117.02609119136241,
        "alt_km": 678.9435988720379,
        "timestamp": "2025-12-22T22:44:21.254176+00:00",
        "meta_object_name": "FENGYUN 1C DEB",
        "meta_object_id": "1999-025ATZ",
        "meta_epoch": "2025-12-22T10:50:38.758272",
        "meta_mean_motion": 14.61448701,
        "meta_eccentricity": 0.0024355,
        "meta_inclination": 98.8922,
        "meta_ra_of_asc_node": 68.5367,
        "meta_arg_of_pericenter": 240.546,
        "meta_mean_anomaly": 247.9627,
        "meta_ephemeris_type": 0,
        "meta_classification_type": "U",
        "meta_norad_cat_id": 30763,
        "meta_element_set_no": 999,
        "meta_rev_at_epoch": 97286,
        "meta_bstar": 0.004793782,
        "meta_mean_motion_dot": 0.00023871,
        "meta_mean_motion_ddot": 0,
        "tle_line1": "1 30763U 99025ATZ 25356.45183748  .00023871  00000+0  47938-2 0  9998",
        "tle_line2": "2 30763  98.8922  68.5367 0024355 240.5460 247.9627 14.61448701972869"
      },
      "geometry": {
        "type": "Point",
        "coordinates": [
          -117.02609119136241,
          -34.14559903927445
        ]
      }
    },
    {
      "type": "Feature",
      "properties": {
        "norad_id": 30764,
        "name": "FENGYUN 1C DEB",
        "group": "fengyun-1c-debris",
        "lat": 61.33111081524446,
        "lon": -46.97955105087331,
        "alt_km": 454.8528496402605,
        "timestamp": "2025-12-22T22:44:21.254186+00:00",
        "meta_object_name": "FENGYUN 1C DEB",
        "meta_object_id": "1999-025AUA",
        "meta_epoch": "2025-12-22T09:54:20.938176",
        "meta_mean_motion": 15.29629279,
        "meta_eccentricity": 0.00765099,
        "meta_inclination": 98.7795,
        "meta_ra_of_asc_node": 328.8084,
        "meta_arg_of_pericenter": 137.1468,
        "meta_mean_anomaly": 223.5766,
        "meta_ephemeris_type": 0,
        "meta_classification_type": "U",
        "meta_norad_cat_id": 30764,
        "meta_element_set_no": 999,
        "meta_rev_at_epoch": 1370,
        "meta_bstar": 0.0011223651,
        "meta_mean_motion_dot": 0.00035257,
        "meta_mean_motion_ddot": 0,
        "tle_line1": "1 30764U 99025AUA 25356.41274234  .00035257  00000+0  11224-2 0  9996",
        "tle_line2": "2 30764  98.7795 328.8084 0076509 137.1468 223.5766 15.29629279 13701"
      },
      "geometry": {
        "type": "Point",
        "coordinates": [
          -46.97955105087331,
          61.33111081524446
        ]
      }
    },
    {
      "type": "Feature",
      "properties": {
        "norad_id": 30765,
        "name": "FENGYUN 1C DEB",
        "group": "fengyun-1c-debris",
        "lat": -78.57512482172864,
        "lon": 172.84419649213666,
        "alt_km": 843.636259909903,
        "timestamp": "2025-12-22T22:44:21.254196+00:00",
        "meta_object_name": "FENGYUN 1C DEB",
        "meta_object_id": "1999-025AUB",
        "meta_epoch": "2025-12-21T14:00:00.334944",
        "meta_mean_motion": 14.14736813,
        "meta_eccentricity": 0.0068642,
        "meta_inclination": 98.7871,
        "meta_ra_of_asc_node": 41.4433,
        "meta_arg_of_pericenter": 184.1264,
        "meta_mean_anomaly": 334.0415,
        "meta_ephemeris_type": 0,
        "meta_classification_type": "U",
        "meta_norad_cat_id": 30765,
        "meta_element_set_no": 999,
        "meta_rev_at_epoch": 96947,
        "meta_bstar": 0.0006388,
        "meta_mean_motion_dot": 1.215e-05,
        "meta_mean_motion_ddot": 0,
        "tle_line1": "1 30765U 99025AUB 25355.58333721  .00001215  00000+0  63880-3 0  9994",
        "tle_line2": "2 30765  98.7871  41.4433 0068642 184.1264 334.0415 14.14736813969477"
      },
      "geometry": {
        "type": "Point",
        "coordinates": [
          172.84419649213666,
          -78.57512482172864
        ]
      }
    },
    {
      "type": "Feature",
      "properties": {
        "norad_id": 30766,
        "name": "FENGYUN 1C DEB",
        "group": "fengyun-1c-debris",
        "lat": -51.46944983101061,
        "lon": 8.01476712881723,
        "alt_km": 875.7466681120341,
        "timestamp": "2025-12-22T22:44:21.254206+00:00",
        "meta_object_name": "FENGYUN 1C DEB",
        "meta_object_id": "1999-025AUC",
        "meta_epoch": "2025-12-22T06:15:29.156832",
        "meta_mean_motion": 14.09552172,
        "meta_eccentricity": 0.00834437,
        "meta_inclination": 98.6731,
        "meta_ra_of_asc_node": 356.3023,
        "meta_arg_of_pericenter": 47.7471,
        "meta_mean_anomaly": 18.2584,
        "meta_ephemeris_type": 0,
        "meta_classification_type": "U",
        "meta_norad_cat_id": 30766,
        "meta_element_set_no": 999,
        "meta_rev_at_epoch": 62931,
        "meta_bstar": 0.00061537717,
        "meta_mean_motion_dot": 1.07e-05,
        "meta_mean_motion_ddot": 0,
        "tle_line1": "1 30766U 99025AUC 25356.26075413  .00001070  00000+0  61538-3 0  9999",
        "tle_line2": "2 30766  98.6731 356.3023 0083443  47.7471  18.2584 14.09552172629317"
      },
      "geometry": {
        "type": "Point",
        "coordinates": [
          8.01476712881723,
          -51.46944983101061
        ]
      }
    }
  ]
}